     2.100          NAVIGATION                              RINEX VERSION / TYPE
fic2rin                                 04/20/2012 00:58:14 PGM / RUN BY / DATE
                                                            END OF HEADER
11 12  4 20  0  0  0.0 -.253218226135D-03 -.375166564481D-11  .000000000000D+00
     .240000000000D+02 -.407500000000D+02  .608918221031D-08 -.152383145139D+01
    -.210851430893D-05  .128333469620D-01  .848807394505D-05  .515367680550D+04
     .432000000000D+06  .346451997757D-06 -.750964484799D+00  .115483999252D-06
     .888086005375D+00  .174125000000D+03  .103972327939D+01 -.867214694402D-08
    -.576809740727D-09  .100000000000D+01  .168400000000D+04  .000000000000D+00
     .240000000000D+01  .000000000000D+00 -.116415321827D-07  .240000000000D+02
     .430236000000D+06  .400000000000D+01
